[{"OBJECT_NAME":"LONGJIANG 3","OBJECT_ID":"2023-082A","EPOCH":"2026-03-09T21:59:58.591968","MEAN_MOTION":15.3804622,"ECCENTRICITY":0.00070713,"INCLINATION":49.1076,"RA_OF_ASC_NODE":196.4161,"ARG_OF_PERICENTER":305.004,"MEAN_ANOMALY":55.0244,"EPHEMERIS_TYPE":0,"CLASSIFICATION_TYPE":"U","NORAD_CAT_ID":56874,"ELEMENT_SET_NO":999,"REV_AT_EPOCH":15406,"BSTAR":0.00064724711,"MEAN_MOTION_DOT":0.00024377,"MEAN_MOTION_DDOT":0},{"OBJECT_NAME":"FLOCK 4BE-11","OBJECT_ID":"2024-149AK","EPOCH":"2026-03-09T15:40:48.031680","MEAN_MOTION":15.39310468,"ECCENTRICITY":0.00031051,"INCLINATION":97.3734,"RA_OF_ASC_NODE":151.8871,"ARG_OF_PERICENTER":261.1576,"MEAN_ANOMALY":98.9318,"EPHEMERIS_TYPE":0,"CLASSIFICATION_TYPE":"U","NORAD_CAT_ID":60501,"ELEMENT_SET_NO":999,"REV_AT_EPOCH":8702,"BSTAR":0.00060399603,"MEAN_MOTION_DOT":0.00023523,"MEAN_MOTION_DDOT":0}]
